STARLINK-1262
1 15366C 20019G   21326.16945069 -.00006040  00000-0 -40476-3 0  3260
2 15366  53.0539   7.9769 0001677  63.6460 213.1572 15.06398742    12
